NOAA 1 [-]              
1 04793U 70106A   20154.83433258 -.00000039  00000-0  35137-4 0  9991
2 04793 101.6561 223.1918 0031267 328.8670 139.1937 12.53994386264256
NOAA 2 (ITOS-D) [-]     
1 06235U 72082A   20154.85455677 -.00000034  00000-0  72463-4 0  9998
2 06235 101.8497 124.6520 0004550  63.6085   0.8633 12.53124600178707
NOAA 3 [-]              
1 06920U 73086A   20154.84916796 -.00000071  00000-0 -19142-3 0  9993
2 06920 102.1048 126.2831 0006000 223.5887 203.5711 12.40340152108470
NOAA 4 [-]              
1 07529U 74089A   20154.84191275 -.00000071  00000-0 -16250-3 0  9997
2 07529 101.8084 124.6036 0009476  91.3822 335.5254 12.53139623 83272
NOAA 5 [-]              
1 09057U 76077A   20154.84205439 -.00000036  00000-0  66147-4 0  9993
2 09057 101.9851 123.2641 0010477  76.2066 350.1222 12.37752693981607
TIROS N [P]             
1 11060U 78096A   20154.73502488 -.00000005  00000-0  18888-4 0  9990
2 11060  98.7396 212.8406 0011635 121.7088 238.5223 14.18268696366043
NOAA 6 [P]              
1 11416U 79057A   20154.86000809  .00000018  00000-0  22600-4 0  9997
2 11416  98.6559 153.7213 0009300 298.5887  61.4361 14.33579996134834
NOAA 7 [-]              
1 12553U 81059A   20154.65391686 -.00000016  00000-0  14876-4 0  9993
2 12553  99.0829 174.9322 0012519  72.5223 287.7318 14.17275896 12292
NOAA 8 [-]              
1 13923U 83022A   20154.85151202 -.00000005  00000-0  15385-4 0  9991
2 13923  98.6182 140.2540 0014266 226.3554 133.6445 14.28702916936088
NOAA 9 [P]              
1 15427U 84123A   20154.90101111 -.00000016  00000-0  14552-4 0  9992
2 15427  98.9407 109.1492 0015768 116.7487 308.4188 14.16098769831235
NOAA 10 [-]             
1 16969U 86073A   20154.91038656 -.00000004  00000-0  15626-4 0  9994
2 16969  98.5018 146.8199 0011814 343.0976  71.7707 14.28098495754565
NOAA 11 [-]             
1 19531U 88089A   20154.89693664 -.00000012  00000-0  14481-4 0  9991
2 19531  98.4134 175.1306 0011585 159.9310 200.2323 14.15255725635509
NOAA 12 [-]             
1 21263U 91032A   20154.85958264 -.00000001  00000-0  17338-4 0  9996
2 21263  98.5056 165.2416 0013607   3.5183 356.6090 14.25914998510615
NOAA 13 [-]             
1 22739U 93050A   20154.89585482  .00000003  00000-0  23756-4 0  9991
2 22739  98.4562 163.5372 0008685 323.5279  36.5302 14.12755431381929
NOAA 14 [-]             
1 23455U 94089A   20154.80875850 -.00000023  00000-0  97786-5 0  9990
2 23455  98.5444 206.9353 0008445 306.5548  53.4848 14.14144900311460
NOAA 15 [B]             
1 25338U 98030A   20154.83934041  .00000084  00000-0  53669-4 0  9990
2 25338  98.7175 179.9642 0009386 309.4782  50.5567 14.25969213146895
NOAA 16 [-]             
1 26536U 00055A   20154.82578982 -.00000008  00000-0  18804-4 0  9997
2 26536  98.7333 224.2572 0011517 125.4386 234.7864 14.13252774312179
NOAA 17 [-]             
1 27453U 02032A   20154.84052825 -.00000026  00000-0  75192-5 0  9992
2 27453  98.5833 101.6843 0010537 281.6220  78.3777 14.25066388932803
NOAA 18 [B]             
1 28654U 05018A   20154.85437121  .00000079  00000-0  67337-4 0  9998
2 28654  99.0445 211.1461 0013142 271.9911  87.9755 14.12514796774857
NOAA 19 [+]             
1 33591U 09005A   20154.85725893  .00000073  00000-0  64983-4 0  9998
2 33591  99.1953 159.8259 0014954 115.2250 245.0472 14.12412014583074
SUOMI NPP [+]           
1 37849U 11061A   20154.81535337 -.00000005  00000-0  18178-4 0  9992
2 37849  98.7362  92.9344 0000870  73.1995   5.2310 14.19553125445558
NOAA 20 [+]             
1 43013U 17073A   20154.83577316 -.00000026  00000-0  85355-5 0  9991
2 43013  98.7174  93.0091 0001408  71.6714 288.4615 14.19554976131583
